*******************************************************************************
 Revised: Jun 17, 2016             Oberon  / (Uranus)                       704

 SATELLITE PHYSICAL PROPERTIES:
  Radius (km)           = 761.4  +- 2.6     Density (g cm^-3)   =  1.63 +- 0.05
  Mass (10^20 kg )      =  30.14 +- 0.75    Geometric Albedo    =  0.24 
                                            V(1,0)              = +1.23

 SATELLITE ORBITAL DATA:
  Semi-major axis, a (km) = 582.6 (10^3)    Orbital period      = 13.463 d
  Eccentricity, e         =   0.0008        Rotational period   = Synchronous
  Inclination, i  (deg)   =   0.10
*******************************************************************************
 
 
*******************************************************************************
Ephemeris / WWW_USER Sat Nov 11 07:03:08 2017 Pasadena, USA      / Horizons    
*******************************************************************************
Target body name: Oberon (704)                    {source: ura111}
Center body name: Solar System Barycenter (0)     {source: DE431mx}
Center-site name: BODY CENTER
*******************************************************************************
Start time      : A.D. 2017-Jul-10 00:00:00.0000 TDB
Stop  time      : A.D. 2020-Aug-13 00:00:00.0000 TDB
Step-size       : 1440 minutes
*******************************************************************************
Center geodetic : 0.00000000,0.00000000,0.0000000 {E-lon(deg),Lat(deg),Alt(km)}
Center cylindric: 0.00000000,0.00000000,0.0000000 {E-lon(deg),Dxy(km),Dz(km)}
Center radii    : (undefined)                                                  
Output units    : KM-S                                                         
Output type     : GEOMETRIC cartesian states
Output format   : 3 (position, velocity, LT, range, range-rate)
Reference frame : ICRF/J2000.0                                                 
Coordinate systm: Ecliptic and Mean Equinox of Reference Epoch                 
*******************************************************************************
            JDTDB,            Calendar Date (TDB),                      X,                      Y,                      Z,                     VX,                     VY,                     VZ,                     LT,                     RG,                     RR,
**************************************************************************************************************************************************************************************************************************************************************************
$$SOE
2459024.500000000, A.D. 2020-Jun-24 00:00:00.0000,  2.365979654174233E+09,  1.781731888690341E+09, -2.408240660974717E+07, -4.535870928250343E+00,  4.764243459121926E+00, -3.038149944286833E+00,  9.879923115087515E+03,  2.961926435523103E+09, -7.326339524417846E-01,
2459025.500000000, A.D. 2020-Jun-25 00:00:00.0000,  2.365528301929985E+09,  1.782158647140710E+09, -2.432920884617722E+07, -5.872392579448775E+00,  5.120982294963425E+00, -2.567963016091615E+00,  9.879583732450468E+03,  2.961824691168140E+09, -1.587680551587195E+00,
2459026.500000000, A.D. 2020-Jun-26 00:00:00.0000,  2.364975687732252E+09,  1.782616775636014E+09, -2.450977642684913E+07, -6.837309234612834E+00,  5.477093185672275E+00, -1.533347516568189E+00,  9.879036266036697E+03,  2.961660564866283E+09, -2.150459099061972E+00,
2459027.500000000, A.D. 2020-Jun-27 00:00:00.0000,  2.364363532323302E+09,  1.783102856195952E+09, -2.458428290076363E+07, -7.226016717241368E+00,  5.756264389347820E+00, -1.578028100218638E-01,  9.878384016051799E+03,  2.961465025240080E+09, -2.301914562392015E+00,
2459028.500000000, A.D. 2020-Jun-28 00:00:00.0000,  2.363746075700810E+09,  1.783607505012092E+09, -2.453569547097683E+07, -6.958249116161715E+00,  5.899175251991941E+00,  1.264336848306768E+00,  9.877752197240628E+03,  2.961275610725670E+09, -2.011546021433829E+00,
2459029.500000000, A.D. 2020-Jun-29 00:00:00.0000,  2.363178474576811E+09,  1.784117408242478E+09, -2.437321804840529E+07, -6.093108350078945E+00,  5.875736183827021E+00,  2.430979139876425E+00,  9.877261201058016E+03,  2.961128413773215E+09, -1.342511878418176E+00,
2459030.500000000, A.D. 2020-Jun-30 00:00:00.0000,  2.362705161468980E+09,  1.784618153550598E+09, -2.413019661021698E+07, -4.815129899999002E+00,  5.691001502815801E+00,  3.095188269869451E+00,  9.877001216792158E+03,  2.961050472451111E+09, -4.373971965725807E-01,
2459031.500000000, A.D. 2020-Jul-01 00:00:00.0000,  2.362350531083986E+09,  1.785097264852426E+09, -2.385703284522998E+07, -3.395453891541298E+00,  5.383939701105974E+00,  3.115976477381253E+00,  9.877013346048589E+03,  2.961054108710711E+09,  5.117318771708665E-01,
2459032.500000000, A.D. 2020-Jul-02 00:00:00.0000,  2.362113788883282E+09,  1.785546830134399E+09, -2.361058831632078E+07, -2.135736858780852E+00,  5.019386664362004E+00,  2.487566190387501E+00,  9.877280920716103E+03,  2.961134325577983E+09,  1.303136953178881E+00,
2459033.500000000, A.D. 2020-Jul-03 00:00:00.0000,  2.361969021728616E+09,  1.785965191336130E+09, -2.344219143431330E+07, -1.305388703535994E+00,  4.674726357271758E+00,  1.341793944697354E+00,  9.877732832891181E+03,  2.961269805439750E+09,  1.767537788657571E+00,
2459034.500000000, A.D. 2020-Jul-04 00:00:00.0000,  2.361870548991390E+09,  1.786357337820709E+09, -2.338667872822988E+07, -1.084102315311382E+00,  4.423667375627650E+00, -7.801535798974712E-02,  9.878258353984900E+03,  2.961427352700168E+09,  1.804388637507593E+00,
2459035.500000000, A.D. 2020-Jul-05 00:00:00.0000,  2.361762568201187E+09,  1.786733886639624E+09, -2.345480130275643E+07, -1.521847211893998E+00,  4.320330194089105E+00, -1.467722418250180E+00,  9.878730611097944E+03,  2.961568931820894E+09,  1.404479792003023E+00,
2459036.500000000, A.D. 2020-Jul-06 00:00:00.0000,  2.361591134035168E+09,  1.787108828617765E+09, -2.363073943063831E+07, -2.526185039900013E+00,  4.387176702263154E+00, -2.527847568338647E+00,  9.879033878357755E+03,  2.961659849058145E+09,  6.531070514338174E-01,
2459037.500000000, A.D. 2020-Jul-07 00:00:00.0000,  2.361315867481693E+09,  1.787496509318188E+09, -2.387541129801118E+07, -3.881250747469189E+00,  4.609760300478401E+00, -3.029551198271584E+00,  9.879088711193550E+03,  2.961676287528767E+09, -2.878764139276577E-01,
2459038.500000000, A.D. 2020-Jul-08 00:00:00.0000,  2.360918748323825E+09,  1.787908514093344E+09, -2.413492123164308E+07, -5.295141705359447E+00,  4.939849132773958E+00, -2.865208293219338E+00,  9.878869229136988E+03,  2.961610488463543E+09, -1.215639072709392E+00,
2459039.500000000, A.D. 2020-Jul-09 00:00:00.0000,  2.360407965115378E+09,  1.788351166286200E+09, -2.435226164191973E+07, -6.464454846423529E+00,  5.306185088134295E+00, -2.071545012564825E+00,  9.878408566281825E+03,  2.961472385213884E+09, -1.931127786683505E+00,
2459040.500000000, A.D. 2020-Jul-10 00:00:00.0000,  2.359816013002377E+09,  1.788824192095885E+09, -2.447961660469162E+07, -7.140063265475490E+00,  5.630102414701126E+00, -8.204838269799992E-01,  9.877791404699570E+03,  2.961287364826157E+09, -2.282077442087818E+00,
2459041.500000000, A.D. 2020-Jul-11 00:00:00.0000,  2.359192633103230E+09,  1.789320807607929E+09, -2.448855558725250E+07, -7.178994154306134E+00,  5.842334798602842E+00,  6.197180555793054E-01,  9.877135620191040E+03,  2.961090765576427E+09, -2.194459885313840E+00,
2459042.500000000, A.D. 2020-Jul-12 00:00:00.0000,  2.358594149146277E+09,  1.789829198191310E+09, -2.437595060195577E+07, -6.574455517230913E+00,  5.897745174232925E+00,  1.942011434046603E+00,  9.876567055042276E+03,  2.960920314032944E+09, -1.687939439480117E+00,
2459043.500000000, A.D. 2020-Jul-13 00:00:00.0000,  2.358071467079642E+09,  1.790335047838169E+09, -2.416455979165649E+07, -5.456272171692256E+00,  5.784579770873024E+00,  2.864991606605588E+00,  9.876192720194431E+03,  2.960808091268795E+09, -8.711051190601429E-01,
2459044.500000000, A.D. 2020-Jul-14 00:00:00.0000,  2.357659286276315E+09,  1.790824579156134E+09, -2.389816236630261E+07, -4.062973269632047E+00,  5.526825190893176E+00,  3.192215819561527E+00,  9.876078117636371E+03,  2.960773734286221E+09,  8.179606659628053E-02,
2459045.500000000, A.D. 2020-Jul-15 00:00:00.0000,  2.357368751547246E+09,  1.791287475125273E+09, -2.363225796749651E+07, -2.691533665528103E+00,  5.179167044201360E+00,  2.853682031818511E+00,  9.876233378816432E+03,  2.960820280417023E+09,  9.676375057352151E-01,
2459046.500000000, A.D. 2020-Jul-16 00:00:00.0000,  2.357185061117058E+09,  1.791719074452787E+09, -2.342228814819002E+07, -1.634782385099625E+00,  4.815496273285977E+00,  1.920807903989725E+00,  9.876611076022917E+03,  2.960933511190935E+09,  1.597314554814769E+00,
2459047.500000000, A.D. 2020-Jul-17 00:00:00.0000,  2.357070559273794E+09,  1.792121376941360E+09, -2.331183131119072E+07, -1.119300259229485E+00,  4.513331163366512E+00,  5.919349658954691E-01,  9.877116227964227E+03,  2.961084951933084E+09,  1.835938033269268E+00,
2459048.500000000, A.D. 2020-Jul-18 00:00:00.0000,  2.356972707020315E+09,  1.792502637039881E+09, -2.332325980678689E+07, -1.256642113804242E+00,  4.337294120234816E+00, -8.492104085209663E-01,  9.877626475095894E+03,  2.961237920174873E+09,  1.631934504645524E+00,
2459049.500000000, A.D. 2020-Jul-19 00:00:00.0000,  2.356835289779825E+09,  1.792875616141833E+09, -2.345287488509929E+07, -2.018614295350925E+00,  4.325152265349890E+00, -2.093851439206019E+00,  9.878018227531440E+03,  2.961355364600453E+09,  1.028591670271221E+00,
2459050.500000000, A.D. 2020-Jul-20 00:00:00.0000,  2.356610485605357E+09,  1.793254854392747E+09, -2.367162041104019E+07, -3.242616702839212E+00,  4.479526509575295E+00, -2.874647647676548E+00,  9.878193212820774E+03,  2.961407823870457E+09,  1.551274701833578E-01,
